start=new Date('2023-03-02T00:00:00.000Z').valueOf();
sats=[{"GP_ID":"227315933","TLE_LINE1":"1 47130U 20088J   23061.00001157  .00085143  00000-0  79176-3 0  9993","ECCENTRICITY":"0.00039030","TLE_LINE2":"2 47130  53.0484 179.1522 0003903 334.2286 212.7907 15.66698702  1303","APOAPSIS":"370.993","EPOCH":"2023-03-02T00:00:00.999648","CENTER_NAME":"EARTH","FILE":"3848834","SEMIMAJOR_AXIS":"6746.495","PERIAPSIS":"365.727","BSTAR":"0.00079176000000","LAUNCH_DATE":"2020-11-25","OBJECT_TYPE":"PAYLOAD","MEAN_MOTION_DDOT":"0.0000000000000","INCLINATION":"53.0484","MEAN_ELEMENT_THEORY":"SGP4","DECAY_DATE":null,"MEAN_MOTION":"15.66698702","EPHEMERIS_TYPE":"0","OBJECT_ID":"2020-088J","CLASSIFICATION_TYPE":"U","RA_OF_ASC_NODE":"179.1522","REF_FRAME":"TEME","NORAD_CAT_ID":"47130","REV_AT_EPOCH":"130","MEAN_MOTION_DOT":"0.00085143","OBJECT_NAME":"STARLINK-1839","ELEMENT_SET_NO":"999","ARG_OF_PERICENTER":"334.2286","SITE":"AFETR","TIME_SYSTEM":"UTC","MEAN_ANOMALY":"212.7907","RCS_SIZE":"LARGE","COUNTRY_CODE":"US","PERIOD":"91.913"},{"MEAN_MOTION_DOT":"-0.00000405","ELEMENT_SET_NO":"999","OBJECT_NAME":"STARLINK-1843","NORAD_CAT_ID":"47133","REF_FRAME":"TEME","RA_OF_ASC_NODE":"207.7387","CLASSIFICATION_TYPE":"U","OBJECT_ID":"2020-088M","REV_AT_EPOCH":"12557","EPHEMERIS_TYPE":"0","MEAN_ELEMENT_THEORY":"SGP4","MEAN_MOTION":"15.06388489","DECAY_DATE":null,"COUNTRY_CODE":"US","PERIOD":"95.593","TIME_SYSTEM":"UTC","RCS_SIZE":"LARGE","MEAN_ANOMALY":"258.6957","SITE":"AFETR","ARG_OF_PERICENTER":"101.4172","SEMIMAJOR_AXIS":"6925.384","EPOCH":"2023-03-01T16:09:53.118144","FILE":"3848834","CENTER_NAME":"EARTH","TLE_LINE2":"2 47133  53.0515 207.7387 0001247 101.4172 258.6957 15.06388489125577","APOAPSIS":"548.112","ECCENTRICITY":"0.00012470","TLE_LINE1":"1 47133U 20088M   23060.67353146 -.00000405  00000-0 -83013-5 0  9993","GP_ID":"227316683","INCLINATION":"53.0515","MEAN_MOTION_DDOT":"0.0000000000000","BSTAR":"-0.00000830130000","PERIAPSIS":"546.385","OBJECT_TYPE":"PAYLOAD","LAUNCH_DATE":"2020-11-25"},{"SEMIMAJOR_AXIS":"6925.386","FILE":"3848834","CENTER_NAME":"EARTH","EPOCH":"2023-03-01T17:06:58.295808","ECCENTRICITY":"0.00012970","TLE_LINE2":"2 47134  53.0510 217.5624 0001297 103.0909 257.0224 15.06387722125442","APOAPSIS":"548.149","TLE_LINE1":"1 47134U 20088N   23060.71317472  .00022515  00000-0  15261-2 0  9992","GP_ID":"227316431","INCLINATION":"53.0510","MEAN_MOTION_DDOT":"0.0000000000000","OBJECT_TYPE":"PAYLOAD","LAUNCH_DATE":"2020-11-25","BSTAR":"0.00152610000000","PERIAPSIS":"546.353","ELEMENT_SET_NO":"999","OBJECT_NAME":"STARLINK-1844","MEAN_MOTION_DOT":"0.00022515","REV_AT_EPOCH":"12544","NORAD_CAT_ID":"47134","RA_OF_ASC_NODE":"217.5624","REF_FRAME":"TEME","CLASSIFICATION_TYPE":"U","OBJECT_ID":"2020-088N","EPHEMERIS_TYPE":"0","DECAY_DATE":null,"MEAN_MOTION":"15.06387722","MEAN_ELEMENT_THEORY":"SGP4","PERIOD":"95.593","COUNTRY_CODE":"US","RCS_SIZE":"LARGE","MEAN_ANOMALY":"257.0224","TIME_SYSTEM":"UTC","ARG_OF_PERICENTER":"103.0909","SITE":"AFETR"},{"MEAN_ELEMENT_THEORY":"SGP4","DECAY_DATE":null,"MEAN_MOTION":"15.06386353","EPHEMERIS_TYPE":"0","OBJECT_ID":"2020-088P","CLASSIFICATION_TYPE":"U","RA_OF_ASC_NODE":"208.9647","REF_FRAME":"TEME","NORAD_CAT_ID":"47135","REV_AT_EPOCH":"12553","MEAN_MOTION_DOT":"-0.00000328","OBJECT_NAME":"STARLINK-1845","ELEMENT_SET_NO":"999","SITE":"AFETR","ARG_OF_PERICENTER":"92.0427","TIME_SYSTEM":"UTC","MEAN_ANOMALY":"268.0746","RCS_SIZE":"LARGE","COUNTRY_CODE":"US","PERIOD":"95.593","GP_ID":"227315184","TLE_LINE1":"1 47135U 20088P   23060.40077067 -.00000328  00000-0 -31343-5 0  9994","APOAPSIS":"548.369","TLE_LINE2":"2 47135  53.0515 208.9647 0001608  92.0427 268.0746 15.06386353125535","ECCENTRICITY":"0.00016080","EPOCH":"2023-03-01T09:37:06.585888","CENTER_NAME":"EARTH","FILE":"3848834","SEMIMAJOR_AXIS":"6925.390","PERIAPSIS":"546.142","BSTAR":"-0.00000313430000","LAUNCH_DATE":"2020-11-25","OBJECT_TYPE":"PAYLOAD","MEAN_MOTION_DDOT":"0.0000000000000","INCLINATION":"53.0515"},{"PERIOD":"95.593","COUNTRY_CODE":"US","RCS_SIZE":"LARGE","MEAN_ANOMALY":"265.2489","TIME_SYSTEM":"UTC","SITE":"AFETR","ARG_OF_PERICENTER":"94.8636","ELEMENT_SET_NO":"999","OBJECT_NAME":"STARLINK-1846","MEAN_MOTION_DOT":"0.00000395","REV_AT_EPOCH":"12544","REF_FRAME":"TEME","RA_OF_ASC_NODE":"217.4771","NORAD_CAT_ID":"47136","OBJECT_ID":"2020-088Q","CLASSIFICATION_TYPE":"U","EPHEMERIS_TYPE":"0","DECAY_DATE":null,"MEAN_MOTION":"15.06394312","MEAN_ELEMENT_THEORY":"SGP4","INCLINATION":"53.0555","MEAN_MOTION_DDOT":"0.0000000000000","OBJECT_TYPE":"PAYLOAD","LAUNCH_DATE":"2020-11-25","BSTAR":"0.00004543800000","PERIAPSIS":"546.405","SEMIMAJOR_AXIS":"6925.366","FILE":"3848834","CENTER_NAME":"EARTH","EPOCH":"2023-03-01T17:33:28.639008","APOAPSIS":"548.057","TLE_LINE2":"2 47136  53.0555 217.4771 0001193  94.8636 265.2489 15.06394312125441","ECCENTRICITY":"0.00011930","TLE_LINE1":"1 47136U 20088Q   23060.73158147  .00000395  00000-0  45438-4 0  9991","GP_ID":"227315434"},{"TLE_LINE2":"2 47137  53.0502 208.1548 0001263 113.6279 246.4842 15.06383090125562","APOAPSIS":"548.140","ECCENTRICITY":"0.00012630","TLE_LINE1":"1 47137U 20088R   23060.58138639  .00014398  00000-0  98396-3 0  9997","GP_ID":"227316185","SEMIMAJOR_AXIS":"6925.400","EPOCH":"2023-03-01T13:57:11.784096","FILE":"3848834","CENTER_NAME":"EARTH","BSTAR":"0.00098396000000","PERIAPSIS":"546.391","OBJECT_TYPE":"PAYLOAD","LAUNCH_DATE":"2020-11-25","INCLINATION":"53.0502","MEAN_MOTION_DDOT":"0.0000000000000","EPHEMERIS_TYPE":"0","MEAN_ELEMENT_THEORY":"SGP4","DECAY_DATE":null,"MEAN_MOTION":"15.06383090","MEAN_MOTION_DOT":"0.00014398","ELEMENT_SET_NO":"999","OBJECT_NAME":"STARLINK-1849","REF_FRAME":"TEME","RA_OF_ASC_NODE":"208.1548","NORAD_CAT_ID":"47137","OBJECT_ID":"2020-088R","CLASSIFICATION_TYPE":"U","REV_AT_EPOCH":"12556","TIME_SYSTEM":"UTC","RCS_SIZE":"LARGE","MEAN_ANOMALY":"246.4842","ARG_OF_PERICENTER":"113.6279","SITE":"AFETR","COUNTRY_CODE":"US","PERIOD":"95.593"},{"SEMIMAJOR_AXIS":"6925.365","FILE":"3848834","CENTER_NAME":"EARTH","EPOCH":"2023-03-01T17:05:00.510144","APOAPSIS":"547.921","TLE_LINE2":"2 47138  53.0523 212.8872 0000997 100.4171 259.6930 15.06394478125517","ECCENTRICITY":"0.00009970","TLE_LINE1":"1 47138U 20088S   23060.71181146  .00001302  00000-0  10632-3 0  9992","GP_ID":"227316931","INCLINATION":"53.0523","MEAN_MOTION_DDOT":"0.0000000000000","OBJECT_TYPE":"PAYLOAD","LAUNCH_DATE":"2020-11-25","BSTAR":"0.00010632000000","PERIAPSIS":"546.540","ELEMENT_SET_NO":"999","OBJECT_NAME":"STARLINK-1850","MEAN_MOTION_DOT":"0.00001302","REV_AT_EPOCH":"12551","RA_OF_ASC_NODE":"212.8872","REF_FRAME":"TEME","NORAD_CAT_ID":"47138","CLASSIFICATION_TYPE":"U","OBJECT_ID":"2020-088S","EPHEMERIS_TYPE":"0","MEAN_MOTION":"15.06394478","DECAY_DATE":null,"MEAN_ELEMENT_THEORY":"SGP4","PERIOD":"95.592","COUNTRY_CODE":"US","RCS_SIZE":"LARGE","MEAN_ANOMALY":"259.6930","TIME_SYSTEM":"UTC","ARG_OF_PERICENTER":"100.4171","SITE":"AFETR"},{"RCS_SIZE":"LARGE","MEAN_ANOMALY":"261.2684","TIME_SYSTEM":"UTC","ARG_OF_PERICENTER":"98.8452","SITE":"AFETR","PERIOD":"95.593","COUNTRY_CODE":"US","EPHEMERIS_TYPE":"0","MEAN_MOTION":"15.06391901","DECAY_DATE":null,"MEAN_ELEMENT_THEORY":"SGP4","ELEMENT_SET_NO":"999","OBJECT_NAME":"STARLINK-1852","MEAN_MOTION_DOT":"-0.00000171","REV_AT_EPOCH":"12532","REF_FRAME":"TEME","RA_OF_ASC_NODE":"224.0303","NORAD_CAT_ID":"47139","CLASSIFICATION_TYPE":"U","OBJECT_ID":"2020-088T","OBJECT_TYPE":"PAYLOAD","LAUNCH_DATE":"2020-11-25","BSTAR":"0.00000740910000","PERIAPSIS":"546.340","INCLINATION":"53.0525","MEAN_MOTION_DDOT":"0.0000000000000","APOAPSIS":"548.137","TLE_LINE2":"2 47139  53.0525 224.0303 0001297  98.8452 261.2684 15.06391901125322","ECCENTRICITY":"0.00012970","TLE_LINE1":"1 47139U 20088T   23060.43074372 -.00000171  00000-0  74091-5 0  9999","GP_ID":"227315684","SEMIMAJOR_AXIS":"6925.373","FILE":"3848834","CENTER_NAME":"EARTH","EPOCH":"2023-03-01T10:20:16.257408"},{"RCS_SIZE":"LARGE","MEAN_ANOMALY":"263.0816","TIME_SYSTEM":"UTC","ARG_OF_PERICENTER":"97.0298","SITE":"AFETR","PERIOD":"95.592","COUNTRY_CODE":"US","EPHEMERIS_TYPE":"0","MEAN_MOTION":"15.06401820","DECAY_DATE":null,"MEAN_ELEMENT_THEORY":"SGP4","ELEMENT_SET_NO":"999","OBJECT_NAME":"STARLINK-1854","MEAN_MOTION_DOT":"0.00024263","REV_AT_EPOCH":"12558","NORAD_CAT_ID":"47141","REF_FRAME":"TEME","RA_OF_ASC_NODE":"207.6731","OBJECT_ID":"2020-088V","CLASSIFICATION_TYPE":"U","OBJECT_TYPE":"PAYLOAD","LAUNCH_DATE":"2020-11-25","BSTAR":"0.00164210000000","PERIAPSIS":"546.445","INCLINATION":"53.0520","MEAN_MOTION_DDOT":"0.0000000000000","APOAPSIS":"547.970","TLE_LINE2":"2 47141  53.0520 207.6731 0001101  97.0298 263.0816 15.06401820125582","ECCENTRICITY":"0.00011010","TLE_LINE1":"1 47141U 20088V   23060.68827692  .00024263  00000-0  16421-2 0  9997","GP_ID":"227315934","SEMIMAJOR_AXIS":"6925.343","FILE":"3848834","CENTER_NAME":"EARTH","EPOCH":"2023-03-01T16:31:07.125888"},{"EPHEMERIS_TYPE":"0","DECAY_DATE":null,"MEAN_MOTION":"15.06393954","MEAN_ELEMENT_THEORY":"SGP4","OBJECT_NAME":"STARLINK-1856","ELEMENT_SET_NO":"999","MEAN_MOTION_DOT":"0.00018127","REV_AT_EPOCH":"12560","OBJECT_ID":"2020-088X","CLASSIFICATION_TYPE":"U","REF_FRAME":"TEME","NORAD_CAT_ID":"47143","RA_OF_ASC_NODE":"206.8631","MEAN_ANOMALY":"262.3223","RCS_SIZE":"LARGE","TIME_SYSTEM":"UTC","SITE":"AFETR","ARG_OF_PERICENTER":"97.7927","PERIOD":"95.593","COUNTRY_CODE":"US","TLE_LINE1":"1 47143U 20088X   23060.86890958  .00018127  00000-0  12329-2 0  9999","TLE_LINE2":"2 47143  53.0519 206.8631 0001416  97.7927 262.3223 15.06393954125602","APOAPSIS":"548.213","ECCENTRICITY":"0.00014160","GP_ID":"227316684","SEMIMAJOR_AXIS":"6925.367","CENTER_NAME":"EARTH","FILE":"3848834","EPOCH":"2023-03-01T20:51:13.787712","LAUNCH_DATE":"2020-11-25","OBJECT_TYPE":"PAYLOAD","PERIAPSIS":"546.251","BSTAR":"0.00123290000000","INCLINATION":"53.0519","MEAN_MOTION_DDOT":"0.0000000000000"}];
